ONEWEB-0683             
1 56719U 23068K   25075.49451418  .00000040  00000+0  73248-4 0  9993
2 56719  87.9136 350.3565 0001483  76.5655 283.5641 13.15550495 89241
ONEWEB-0684             
1 56720U 23068L   25075.80667231  .00000077  00000+0  16964-3 0  9993
2 56720  87.9110 350.3362 0002980  56.3045 303.8369 13.15550778 89812
ONEWEB-0686             
1 56721U 23068M   25075.74197137  .00000161  00000+0  38681-3 0  9994
2 56721  87.9084 319.9986 0001545  70.5344 289.5953 13.16596454 92222
ONEWEB-0694             
1 56722U 23068N   25075.70873172  .00000081  00000+0  17844-3 0  9990
2 56722  87.9081 319.9235 0001254  81.0969 279.0304 13.16596300 92273
ONEWEB-0696             
1 56723U 23068P   25075.45965536  .00000041  00000+0  75391-4 0  9997
2 56723  87.9141 350.4155 0002145  75.8147 284.3221 13.15547086 89180
ONEWEB-0703             
1 56724U 23068Q   25075.46916960 -.00000039  00000+0 -13676-3 0  9992
2 56724  87.9123 350.4271 0002976  84.4879 275.6590 13.15550817 89076
ONEWEB-0721             
1 56725U 23068R   25075.47089269  .00000112  00000+0  23372-3 0  9991
2 56725  86.6770 231.3579 0001631 101.2638 258.8679 13.22427698 97446
ONEWEB-0015             
1 61594U 24188A   25075.91668981  .00000015  00000+0  00000+0 0  9999
2 61594  87.5644 112.5993 0007822  81.7218 197.3682 13.53589931 22543
